{"type": "FeatureCollection", "features": [ {"type": "Feature", "properties": {"norad_id": 32384, "name": "GPS BIIRM-5 (PRN 29)", "group": "gps-ops", "lat": 30.66318793744856, "lon": 77.7103189255316, "alt_km": 20097.588175991958, "timestamp": "2025-12-02T07:10:09.373810+00:00", "meta": {"OBJECT_NAME": "GPS BIIRM-5 (PRN 29)", "OBJECT_ID": "2007-062A", "EPOCH": "2025-11-30T01:46:38.777952", "MEAN_MOTION": 2.0057652, "ECCENTRICITY": 0.00321996, "INCLINATION": 55.1935, "RA_OF_ASC_NODE": 282.1541, "ARG_OF_PERICENTER": 162.9568, "MEAN_ANOMALY": 172.309, "EPHEMERIS_TYPE": 0, "CLASSIFICATION_TYPE": "U", "NORAD_CAT_ID": 32384, "ELEMENT_SET_NO": 999, "REV_AT_EPOCH": 13151, "BSTAR": 0, "MEAN_MOTION_DOT": -3.9e-07, "MEAN_MOTION_DDOT": 0}, "tle": {"line1": "1 32384U 07062A   25334.07405993 -.00000039  00000+0  00000+0 0  9990", "line2": "2 32384  55.1935 282.1541 0032199 162.9568 172.3090  2.00576520131514"}}, "geometry": {"type": "Point", "coordinates": [77.7103189255316, 30.66318793744856]}}, {"type": "Feature", "properties": {"norad_id": 32711, "name": "GPS BIIRM-6 (PRN 07)", "group": "gps-ops", "lat": 48.18444467470172, "lon": -149.1823349707477, "alt_km": 20713.029134418048, "timestamp": "2025-12-02T07:10:09.373821+00:00", "meta": {"OBJECT_NAME": "GPS BIIRM-6 (PRN 07)", "OBJECT_ID": "2008-012A", "EPOCH": "2025-12-01T16:55:34.250592", "MEAN_MOTION": 2.00564991, "ECCENTRICITY": 0.0202013, "INCLINATION": 54.4753, "RA_OF_ASC_NODE": 157.8135, "ARG_OF_PERICENTER": 244.8275, "MEAN_ANOMALY": 113.1101, "EPHEMERIS_TYPE": 0, "CLASSIFICATION_TYPE": "U", "NORAD_CAT_ID": 32711, "ELEMENT_SET_NO": 999, "REV_AT_EPOCH": 12979, "BSTAR": 0, "MEAN_MOTION_DOT": 1.24e-06, "MEAN_MOTION_DDOT": 0}, "tle": {"line1": "1 32711U 08012A   25335.70525753  .00000124  00000+0  00000+0 0  9992", "line2": "2 32711  54.4753 157.8135 0202013 244.8275 113.1101  2.00564991129796"}}, "geometry": {"type": "Point", "coordinates": [-149.1823349707477, 48.18444467470172]}}, {"type": "Feature", "properties": {"norad_id": 35752, "name": "GPS BIIRM-8 (PRN 05)", "group": "gps-ops", "lat": 55.93796184800647, "lon": 118.98834997312558, "alt_km": 20037.520911395746, "timestamp": "2025-12-02T07:10:09.373832+00:00", "meta": {"OBJECT_NAME": "GPS BIIRM-8 (PRN 05)", "OBJECT_ID": "2009-043A", "EPOCH": "2025-12-01T04:42:32.815296", "MEAN_MOTION": 2.00566259, "ECCENTRICITY": 0.00521242, "INCLINATION": 56.0822, "RA_OF_ASC_NODE": 35.2386, "ARG_OF_PERICENTER": 82.0997, "MEAN_ANOMALY": 288.3285, "EPHEMERIS_TYPE": 0, "CLASSIFICATION_TYPE": "U", "NORAD_CAT_ID": 35752, "ELEMENT_SET_NO": 999, "REV_AT_EPOCH": 11939, "BSTAR": 0, "MEAN_MOTION_DOT": -6.6e-07, "MEAN_MOTION_DDOT": 0}, "tle": {"line1": "1 35752U 09043A   25335.19621314 -.00000066  00000+0  00000+0 0  9994", "line2": "2 35752  56.0822  35.2386 0052124  82.0997 288.3285  2.00566259119397"}}, "geometry": {"type": "Point", "coordinates": [118.98834997312558, 55.93796184800647]}}, {"type": "Feature", "properties": {"norad_id": 36585, "name": "GPS BIIF-1  (PRN 25)", "group": "gps-ops", "lat": -20.985851293819717, "lon": 52.491761980572726, "alt_km": 20444.531009699735, "timestamp": "2025-12-02T07:10:09.373843+00:00", "meta": {"OBJECT_NAME": "GPS BIIF-1  (PRN 25)", "OBJECT_ID": "2010-022A", "EPOCH": "2025-12-01T06:27:39.458016", "MEAN_MOTION": 2.00552516, "ECCENTRICITY": 0.0125618, "INCLINATION": 54.3025, "RA_OF_ASC_NODE": 216.5366, "ARG_OF_PERICENTER": 64.9463, "MEAN_ANOMALY": 117.0243, "EPHEMERIS_TYPE": 0, "CLASSIFICATION_TYPE": "U", "NORAD_CAT_ID": 36585, "ELEMENT_SET_NO": 999, "REV_AT_EPOCH": 11362, "BSTAR": 0, "MEAN_MOTION_DOT": 6e-07, "MEAN_MOTION_DDOT": 0}, "tle": {"line1": "1 36585U 10022A   25335.26920669  .00000060  00000+0  00000+0 0  9994", "line2": "2 36585  54.3025 216.5366 0125618  64.9463 117.0243  2.00552516113629"}}, "geometry": {"type": "Point", "coordinates": [52.491761980572726, -20.985851293819717]}}, {"type": "Feature", "properties": {"norad_id": 38833, "name": "GPS BIIF-3  (PRN 24)", "group": "gps-ops", "lat": -43.81765215529666, "lon": 106.47419779614347, "alt_km": 20437.52383582193, "timestamp": "2025-12-02T07:10:09.373855+00:00", "meta": {"OBJECT_NAME": "GPS BIIF-3  (PRN 24)", "OBJECT_ID": "2012-053A", "EPOCH": "2025-11-30T21:15:05.262912", "MEAN_MOTION": 2.00564831, "ECCENTRICITY": 0.01754484, "INCLINATION": 53.5557, "RA_OF_ASC_NODE": 151.7243, "ARG_OF_PERICENTER": 63.8273, "MEAN_ANOMALY": 298.0063, "EPHEMERIS_TYPE": 0, "CLASSIFICATION_TYPE": "U", "NORAD_CAT_ID": 38833, "ELEMENT_SET_NO": 999, "REV_AT_EPOCH": 9546, "BSTAR": 0, "MEAN_MOTION_DOT": 1.23e-06, "MEAN_MOTION_DDOT": 0}, "tle": {"line1": "1 38833U 12053A   25334.88547758  .00000123  00000+0  00000+0 0  9999", "line2": "2 38833  53.5557 151.7243 0175448  63.8273 298.0063  2.00564831 95469"}}, "geometry": {"type": "Point", "coordinates": [106.47419779614347, -43.81765215529666]}}, {"type": "Feature", "properties": {"norad_id": 39166, "name": "GPS BIIF-4  (PRN 27)", "group": "gps-ops", "lat": 31.398343928422282, "lon": -57.39903513042326, "alt_km": 19818.635563870976, "timestamp": "2025-12-02T07:10:09.373866+00:00", "meta": {"OBJECT_NAME": "GPS BIIF-4  (PRN 27)", "OBJECT_ID": "2013-023A", "EPOCH": "2025-12-01T05:56:59.212320", "MEAN_MOTION": 2.00565063, "ECCENTRICITY": 0.0137183, "INCLINATION": 54.6621, "RA_OF_ASC_NODE": 277.0355, "ARG_OF_PERICENTER": 48.4881, "MEAN_ANOMALY": 312.6778, "EPHEMERIS_TYPE": 0, "CLASSIFICATION_TYPE": "U", "NORAD_CAT_ID": 39166, "ELEMENT_SET_NO": 999, "REV_AT_EPOCH": 9191, "BSTAR": 0, "MEAN_MOTION_DOT": -4e-07, "MEAN_MOTION_DDOT": 0}, "tle": {"line1": "1 39166U 13023A   25335.24790755 -.00000040  00000+0  00000+0 0  9994", "line2": "2 39166  54.6621 277.0355 0137183  48.4881 312.6778  2.00565063 91917"}}, "geometry": {"type": "Point", "coordinates": [-57.39903513042326, 31.398343928422282]}}, {"type": "Feature", "properties": {"norad_id": 39533, "name": "GPS BIIF-5  (PRN 30)", "group": "gps-ops", "lat": 32.628582377778905, "lon": -174.4864888976421, "alt_km": 20386.310168562402, "timestamp": "2025-12-02T07:10:09.373892+00:00", "meta": {"OBJECT_NAME": "GPS BIIF-5  (PRN 30)", "OBJECT_ID": "2014-008A", "EPOCH": "2025-11-29T05:57:39.103200", "MEAN_MOTION": 2.00573621, "ECCENTRICITY": 0.00788834, "INCLINATION": 53.629, "RA_OF_ASC_NODE": 157.4751, "ARG_OF_PERICENTER": 226.3092, "MEAN_ANOMALY": 133.082, "EPHEMERIS_TYPE": 0, "CLASSIFICATION_TYPE": "U", "NORAD_CAT_ID": 39533, "ELEMENT_SET_NO": 999, "REV_AT_EPOCH": 8567, "BSTAR": 0, "MEAN_MOTION_DOT": 1.23e-06, "MEAN_MOTION_DDOT": 0}, "tle": {"line1": "1 39533U 14008A   25333.24836925  .00000123  00000+0  00000+0 0  9995", "line2": "2 39533  53.6290 157.4751 0078883 226.3092 133.0820  2.00573621 85677"}}, "geometry": {"type": "Point", "coordinates": [-174.4864888976421, 32.628582377778905]}}, {"type": "Feature", "properties": {"norad_id": 39741, "name": "GPS BIIF-6  (PRN 06)", "group": "gps-ops", "lat": -15.003992969272042, "lon": 169.37650727381975, "alt_km": 20235.721730663365, "timestamp": "2025-12-02T07:10:09.373905+00:00", "meta": {"OBJECT_NAME": "GPS BIIF-6  (PRN 06)", "OBJECT_ID": "2014-026A", "EPOCH": "2025-12-01T00:37:56.787744", "MEAN_MOTION": 2.00562013, "ECCENTRICITY": 0.00388586, "INCLINATION": 56.588, "RA_OF_ASC_NODE": 339.2323, "ARG_OF_PERICENTER": 318.0747, "MEAN_ANOMALY": 41.6609, "EPHEMERIS_TYPE": 0, "CLASSIFICATION_TYPE": "U", "NORAD_CAT_ID": 39741, "ELEMENT_SET_NO": 999, "REV_AT_EPOCH": 8456, "BSTAR": 0, "MEAN_MOTION_DOT": -5.2e-07, "MEAN_MOTION_DDOT": 0}, "tle": {"line1": "1 39741U 14026A   25335.02635171 -.00000052  00000+0  00000+0 0  9996", "line2": "2 39741  56.5880 339.2323 0038858 318.0747  41.6609  2.00562013 84563"}}, "geometry": {"type": "Point", "coordinates": [169.37650727381975, -15.003992969272042]}}, {"type": "Feature", "properties": {"norad_id": 40105, "name": "GPS BIIF-7  (PRN 09)", "group": "gps-ops", "lat": 35.12745123929979, "lon": -112.94175421433715, "alt_km": 20092.986074577162, "timestamp": "2025-12-02T07:10:09.373917+00:00", "meta": {"OBJECT_NAME": "GPS BIIF-7  (PRN 09)", "OBJECT_ID": "2014-045A", "EPOCH": "2025-12-01T02:44:59.047584", "MEAN_MOTION": 2.00571745, "ECCENTRICITY": 0.0032948, "INCLINATION": 55.2216, "RA_OF_ASC_NODE": 96.3629, "ARG_OF_PERICENTER": 119.5842, "MEAN_ANOMALY": 240.7262, "EPHEMERIS_TYPE": 0, "CLASSIFICATION_TYPE": "U", "NORAD_CAT_ID": 40105, "ELEMENT_SET_NO": 999, "REV_AT_EPOCH": 8210, "BSTAR": 0, "MEAN_MOTION_DOT": 1.8e-07, "MEAN_MOTION_DDOT": 0}, "tle": {"line1": "1 40105U 14045A   25335.11457231  .00000018  00000+0  00000+0 0  9993", "line2": "2 40105  55.2216  96.3629 0032948 119.5842 240.7262  2.00571745 82109"}}, "geometry": {"type": "Point", "coordinates": [-112.94175421433715, 35.12745123929979]}}, {"type": "Feature", "properties": {"norad_id": 40294, "name": "GPS BIIF-8  (PRN 03)", "group": "gps-ops", "lat": -36.01140281087892, "lon": -113.10919859059217, "alt_km": 20333.266147797836, "timestamp": "2025-12-02T07:10:09.373929+00:00", "meta": {"OBJECT_NAME": "GPS BIIF-8  (PRN 03)", "OBJECT_ID": "2014-068A", "EPOCH": "2025-11-30T11:50:19.709088", "MEAN_MOTION": 2.00564008, "ECCENTRICITY": 0.0060843, "INCLINATION": 56.8481, "RA_OF_ASC_NODE": 38.6199, "ARG_OF_PERICENTER": 69.4521, "MEAN_ANOMALY": 291.2475, "EPHEMERIS_TYPE": 0, "CLASSIFICATION_TYPE": "U", "NORAD_CAT_ID": 40294, "ELEMENT_SET_NO": 999, "REV_AT_EPOCH": 8122, "BSTAR": 0, "MEAN_MOTION_DOT": -6.3e-07, "MEAN_MOTION_DDOT": 0}, "tle": {"line1": "1 40294U 14068A   25334.49328367 -.00000063  00000+0  00000+0 0  9995", "line2": "2 40294  56.8481  38.6199 0060843  69.4521 291.2475  2.00564008 81225"}}, "geometry": {"type": "Point", "coordinates": [-113.10919859059217, -36.01140281087892]}}]}